{
  "norad_id": 23712,
  "name": "USA 115 (MILSTAR-1 2)",
  "history": [
    {
      "epoch": "2026-03-28T09:22:38.703072",
      "apogee_km": 35802.3005336499,
      "perigee_km": 35769.528103122175,
      "latitude_deg": -6.883974641600193,
      "longitude_deg": -171.29032991989516,
      "semi_major_axis_km": 42164.05131838604,
      "eccentricity": 0.00038863,
      "inclination_deg": 14.0449,
      "raan_deg": 4.3498,
      "arg_perigee_deg": 348.9027,
      "mean_anomaly_deg": 213.2109,
      "mean_motion_rev_day": 1.00274213
    }
  ]
}